[Satellite]
VERSION=1.1
NAME=XTAR-EUR
NICKNAME=XTAR-EUR
TLE1=1 28542U 05005A   15053.79614502  .00000126  00000-0  00000+0 0  9997
TLE2=2 28542   0.0265  96.6547 0002226 212.9327 158.3852  1.00274493 36743
